STARLINK-2583_new
1 18439C 21040M   21326.18334784 -.00002354  00000-0 -15768-3 0  3267
2 18439  53.0553  22.9272 0001451  69.9850 319.7162 15.06403187    18
STARLINK-2583_old
1 28439C 21040M   21325.13245714 -.00010274  00000-0 -68849-3 0  3252
2 28439  53.0551  27.6448 0001387  70.9964  16.5549 15.06402743    17
